FLT8
1 20253U 89077A   20246.89888042 -.00000089 +00000-0 +00000-0 0  9992
2 20253 013.0165 004.9026 0003393 124.1307 248.9690 01.00273033239457
UFO 10
1 25967U 99063A   20246.84642486 -.00000199 +00000-0 +00000-0 0  9992
2 25967 007.9495 035.4006 0004649 090.0515 138.7792 01.00278964076159
UFO 11
1 28117U 03057A   20246.88036066 -.00000113 +00000-0 +00000-0 0  9991
2 28117 006.1399 037.5021 0001821 049.1301 287.8069 01.00276084061259
FLT7
1 17181U 86096A   20246.14145302 +.00000036 +00000-0 +00000-0 0  9990
2 17181 014.3609 355.2110 0038701 282.8762 174.0554 00.98926428131003
UFO 2
1 22787U 93056A   20246.71634803 +.00000115 +00000-0 +00000-0 0  9992
2 22787 011.3044 014.8511 0005103 166.3031 087.7525 01.00273502097392
MUOS 4
1 40887U 15044A   20247.16759720 -.00000109  00000-0  00000+0 0  9993
2 40887   2.8838 345.4874 0050525 359.7810 132.8667  1.00272511 18374
MUOS 3
1 40374U 15002A   20247.14936488 -.00000144  00000-0  00000+0 0  9993
2 40374   2.7583 349.2609 0059153 179.0949 212.6541  1.00270893 20632
TACSAT 4
1 37818U 11052A   20246.09704987 +.00000522 +00000-0 +55891-3 0  9994
2 37818 063.1060 087.6656 4627413 226.9136 331.6508 06.02667819196534
SICRAL 1B
1 34810U 09020A   20113.67237690 0.00000000  00000-0  00000-0 0    07
2 34810   0.0207 104.9569 0003304  88.0739 271.9841  1.00270000    08
SICRAL 1
1 26694U 01005A   20113.49042611 0.00000000  00000-0  00000-0 0    00
2 26694   8.8155  43.8354 0006663 186.7590 173.2445  1.00270000    06
SICRAL 2
1 40614U 15022B   20086.38143932 0.00000000  00000-0  00000-0 0    07
2 40614   0.0280 358.6637 0003453 251.4209 108.5497  1.00270000    07
COMSATBW 1
1 35943U 09054B   20247.19215943  .00000008  00000-0  00000+0 0  9998
2 35943   0.0696 104.1900 0003302  59.7503 311.0039  1.00272980 40076
COMSATBW 2
1 36582U 10021B   20246.84743578  .00000070  00000-0  00000+0 0  9994
2 36582   0.0271 104.4833 0002463  62.9260 133.2915  1.00270791 37796
INTELSAT 22
1 38098U 12011A   20246.83104940 -.00000077 +00000-0 +00000-0 0  9991
2 38098 000.0205 229.1487 0002822 314.9883 169.5687 01.00271431030622